FENGYUN 1C DEB          
1 30469U 99025AGG 17345.82355750  .00000227  00000-0  19416-3 0  9997
2 30469  98.5094  33.3155 0169112 333.0420  78.2130 13.89538471550532
